     2              NAVIGATION DATA                         RINEX VERSION / TYPE
CCRINEXN V1.6.0 UX  CDDIS               17-JUN-16 15:33     PGM / RUN BY / DATE 
IGS BROADCAST EPHEMERIS FILE                                COMMENT             
    0.5588D-08  0.1490D-07 -0.5960D-07 -0.1192D-06          ION ALPHA           
    0.8397D+05  0.9830D+05 -0.6554D+05 -0.5243D+06          ION BETA            
   -0.186264514923D-08-0.177635683940D-14   589824     1901 DELTA-UTC: A0,A1,T,W
    17                                                      LEAP SECONDS        
                                                            END OF HEADER       
12 16  6 16 18  0  0.0 0.382910948247D-03 0.102318153950D-11 0.000000000000D+00
    0.570000000000D+02-0.720625000000D+02 0.415803034151D-08-0.169273629943D+01
   -0.369921326637D-05 0.614435353782D-02 0.453181564808D-05 0.515371407318D+04
    0.410400000000D+06 0.838190317154D-07 0.169916507245D+01 0.409781932831D-07
    0.990053032506D+00 0.307000000000D+03 0.766682287303D+00-0.795354558281D-08
   -0.125362364703D-09 0.000000000000D+00 0.190100000000D+04 0.000000000000D+00
    0.200000000000D+01 0.000000000000D+00-0.125728547573D-07 0.570000000000D+02
    0.403200000000D+06 0.400000000000D+01 0.000000000000D+00 0.000000000000D+00
13 16  6 16 18  0  0.0-0.251429155469D-04-0.250111042988D-11 0.000000000000D+00
    0.370000000000D+02 0.669375000000D+02 0.401552440557D-08-0.188297032630D+00
    0.329501926899D-05 0.426519440953D-02 0.988878309727D-05 0.515368629646D+04
    0.410400000000D+06-0.651925802231D-07-0.334533556883D+00-0.651925802231D-07
    0.971614089730D+00 0.194406250000D+03 0.200233212965D+01-0.778568144774D-08
    0.214294640518D-10 0.100000000000D+01 0.190100000000D+04 0.000000000000D+00
    0.200000000000D+01 0.000000000000D+00-0.111758708954D-07 0.370000000000D+02
    0.404820000000D+06 0.400000000000D+01 0.000000000000D+00 0.000000000000D+00
14 16  6 16 18  0  0.0-0.196951441467D-04-0.204636307899D-11 0.000000000000D+00
    0.520000000000D+02 0.688125000000D+02 0.412695761864D-08 0.146376248729D+01
    0.360980629921D-05 0.875496235676D-02 0.110641121864D-04 0.515403287125D+04
    0.410400000000D+06-0.186264514923D-06-0.371687470207D+00-0.875443220139D-07
    0.964079319922D+00 0.164312500000D+03-0.196284505071D+01-0.788318550918D-08
   -0.214294640518D-11 0.000000000000D+00 0.190100000000D+04 0.000000000000D+00
    0.200000000000D+01 0.000000000000D+00-0.931322574616D-08 0.520000000000D+02
    0.403200000000D+06 0.400000000000D+01 0.000000000000D+00 0.000000000000D+00
15 16  6 16 18  0  0.0-0.315547455102D-03-0.159161572810D-11 0.000000000000D+00
    0.640000000000D+02 0.475937500000D+02 0.488948938114D-08 0.911804259622D+00
    0.253319740295D-05 0.816252781078D-02 0.102948397398D-04 0.515361480713D+04
    0.410400000000D+06-0.987201929092D-07-0.508523556447D+00 0.130385160446D-06
    0.930828793875D+00 0.165718750000D+03 0.482281812402D+00-0.817641200895D-08
   -0.199294015681D-09 0.000000000000D+00 0.190100000000D+04 0.000000000000D+00
    0.200000000000D+01 0.000000000000D+00-0.107102096081D-07 0.640000000000D+02
    0.403200000000D+06 0.400000000000D+01 0.000000000000D+00 0.000000000000D+00
16 16  6 16 18  0  0.0-0.104601494968D-04 0.238742359215D-11 0.000000000000D+00
    0.550000000000D+02-0.857500000000D+02 0.406302638421D-08 0.255589214728D+01
   -0.442191958427D-05 0.872814748436D-02 0.463612377644D-05 0.515377665901D+04
    0.410400000000D+06-0.135973095894D-06 0.171795913128D+01-0.651925802231D-07
    0.990564291653D+00 0.308937500000D+03 0.394592731137D+00-0.785532720591D-08
   -0.240009997380D-09 0.000000000000D+00 0.190100000000D+04 0.000000000000D+00
    0.200000000000D+01 0.000000000000D+00-0.107102096081D-07 0.550000000000D+02
    0.407760000000D+06 0.400000000000D+01 0.000000000000D+00 0.000000000000D+00
18 16  6 16 18  0  0.0 0.527127180249D-03 0.397903932026D-11 0.000000000000D+00
    0.120000000000D+02-0.327812500000D+02 0.527593404955D-08-0.302413731923D+01
   -0.166706740856D-05 0.172395559494D-01 0.649131834507D-05 0.515368847847D+04
    0.410400000000D+06 0.203028321266D-06-0.152857658417D+01-0.968575477600D-07
    0.924569513083D+00 0.232000000000D+03-0.187725148109D+01-0.811069498586D-08
   -0.332871008271D-09 0.000000000000D+00 0.190100000000D+04 0.000000000000D+00
    0.200000000000D+01 0.000000000000D+00-0.121071934700D-07 0.120000000000D+02
    0.403200000000D+06 0.400000000000D+01 0.000000000000D+00 0.000000000000D+00
19 16  6 16 18  0  0.0-0.525448005646D-03 0.113686837722D-12 0.000000000000D+00
    0.390000000000D+02-0.355625000000D+02 0.409445632954D-08-0.145707501622D+01
   -0.182352960110D-05 0.107806114247D-01 0.978820025921D-05 0.515362491226D+04
    0.410400000000D+06 0.199303030968D-06 0.278810941119D+01-0.204890966415D-07
    0.974044815893D+00 0.196187500000D+03 0.791464175157D+00-0.766460495072D-08
    0.178578873911D-09 0.100000000000D+01 0.190100000000D+04 0.000000000000D+00
    0.200000000000D+01 0.000000000000D+00-0.149011611938D-07 0.390000000000D+02
    0.403200000000D+06 0.000000000000D+00 0.000000000000D+00 0.000000000000D+00
21 16  6 16 18  0  0.0-0.525990501046D-03-0.102318153950D-11 0.000000000000D+00
    0.340000000000D+02 0.221875000000D+02 0.505521056981D-08-0.212525082228D+01
    0.116415321827D-05 0.233511973638D-01 0.616163015366D-05 0.515359518433D+04
    0.410400000000D+06 0.379979610443D-06-0.257065632615D+01 0.186264514923D-08
    0.936666325626D+00 0.242781250000D+03-0.178272303691D+01-0.793390190743D-08
    0.368586781690D-09 0.000000000000D+00 0.190100000000D+04 0.000000000000D+00
    0.200000000000D+01 0.000000000000D+00-0.102445483208D-07 0.340000000000D+02
    0.403230000000D+06 0.400000000000D+01 0.000000000000D+00 0.000000000000D+00
22 16  6 16 18  0  0.0 0.318511389196D-03-0.875388650456D-11 0.000000000000D+00
    0.490000000000D+02-0.367500000000D+02 0.558058959681D-08 0.125269677322D+01
   -0.202096998692D-05 0.767577835359D-02 0.656954944134D-05 0.515379440880D+04
    0.410400000000D+06-0.782310962677D-07-0.152797041822D+01-0.111758708954D-06
    0.922474359845D+00 0.237750000000D+03-0.190374860528D+01-0.861285876014D-08
   -0.471448209139D-09 0.100000000000D+01 0.190100000000D+04 0.000000000000D+00
    0.200000000000D+01 0.000000000000D+00-0.176951289177D-07 0.490000000000D+02
    0.403218000000D+06 0.400000000000D+01 0.000000000000D+00 0.000000000000D+00
23 16  6 16 18  0  0.0-0.178387854248D-03-0.159161572810D-11 0.000000000000D+00
    0.640000000000D+02 0.455625000000D+02 0.458519099161D-08 0.391513478759D+00
    0.254623591900D-05 0.110223914962D-01 0.102780759335D-04 0.515366468811D+04
    0.410400000000D+06 0.558793544769D-08-0.450437051151D+00 0.292435288429D-06
    0.946089627585D+00 0.175406250000D+03-0.256372798856D+01-0.805712132573D-08
   -0.750031241812D-10 0.100000000000D+01 0.190100000000D+04 0.000000000000D+00
    0.200000000000D+01 0.000000000000D+00-0.200234353542D-07 0.640000000000D+02
    0.403200000000D+06 0.400000000000D+01 0.000000000000D+00 0.000000000000D+00
24 16  6 16 18  0  0.0-0.186851248145D-04-0.568434188608D-12 0.000000000000D+00
    0.750000000000D+02 0.795312500000D+02 0.500413701382D-08-0.164951145163D+00
    0.427663326263D-05 0.442783010658D-02 0.400654971600D-05 0.515361553955D+04
    0.410400000000D+06 0.763684511185D-07 0.574728638269D+00-0.335276126862D-07
    0.949481040348D+00 0.298218750000D+03 0.414340624253D+00-0.850964017496D-08
    0.301441127661D-09 0.000000000000D+00 0.190100000000D+04 0.000000000000D+00
    0.200000000000D+01 0.000000000000D+00 0.232830643654D-08 0.750000000000D+02
    0.403200000000D+06 0.400000000000D+01 0.000000000000D+00 0.000000000000D+00
25 16  6 16 18  0  0.0-0.191404949874D-03-0.704858393874D-11 0.000000000000D+00
    0.730000000000D+02-0.744375000000D+02 0.438982571100D-08-0.223087905938D+01
   -0.387802720070D-05 0.563262903597D-02 0.431388616562D-05 0.515374157143D+04
    0.410400000000D+06 0.141561031342D-06 0.164798363997D+01-0.745058059692D-08
    0.978259911515D+00 0.304187500000D+03 0.787376296355D+00-0.812962434577D-08
   -0.152863510236D-09 0.000000000000D+00 0.190100000000D+04 0.000000000000D+00
    0.200000000000D+01 0.000000000000D+00 0.558793544769D-08 0.730000000000D+02
    0.403200000000D+06 0.400000000000D+01 0.000000000000D+00 0.000000000000D+00
26 16  6 16 18  0  0.0-0.397580675781D-03-0.111413100967D-10 0.000000000000D+00
    0.430000000000D+02-0.748750000000D+02 0.483591572101D-08-0.304538965535D+01
   -0.383146107197D-05 0.101255439222D-02 0.382028520107D-05 0.515377383995D+04
    0.410400000000D+06-0.223517417908D-07 0.163865091897D+01 0.372529029846D-08
    0.960226259952D+00 0.307500000000D+03 0.205010772207D+00-0.833284709653D-08
   -0.222866426138D-09 0.000000000000D+00 0.190100000000D+04 0.000000000000D+00
    0.200000000000D+01 0.000000000000D+00 0.698491930962D-08 0.430000000000D+02
    0.403380000000D+06 0.400000000000D+01 0.000000000000D+00 0.000000000000D+00
27 16  6 16 18  0  0.0 0.104249920696D-03 0.420641299570D-11 0.000000000000D+00
    0.680000000000D+02-0.599062500000D+02 0.416338770752D-08 0.169986520456D+01
   -0.287964940071D-05 0.372567132581D-02 0.107400119305D-04 0.515364972305D+04
    0.410400000000D+06 0.130385160446D-07 0.268939874169D+01 0.158324837685D-06
    0.971831157514D+00 0.178843750000D+03 0.303489269295D+00-0.781496838195D-08
    0.742888087128D-10 0.100000000000D+01 0.190100000000D+04 0.000000000000D+00
    0.200000000000D+01 0.000000000000D+00 0.139698386192D-08 0.680000000000D+02
    0.406200000000D+06 0.400000000000D+01 0.000000000000D+00 0.000000000000D+00
